GLOBALSTAR M063 [+]     
1 26081U 00008A   23356.47792147 -.00000096  00000+0 -19404-3 0  9992
2 26081  51.9959 100.8431 0004042   5.0534  76.1588 11.86148612 93174
GLOBALSTAR M062 [-]     
1 26082U 00008B   23356.06360541 -.00000028  00000+0  50358-3 0  9994
2 26082  51.9838 252.8895 0007989  37.6918  70.4614 12.43423581429055
GLOBALSTAR M060 [-]     
1 26083U 00008C   23356.54831772 -.00000004  00000+0  86110-3 0  9996
2 26083  52.0006 134.7012 0004624 103.5708 334.1057 12.17621451 86267
GLOBALSTAR M065 [+]     
1 31571U 07020A   23356.54289032 -.00000085  00000+0  10618-3 0  9990
2 31571  51.9903  77.8284 0010209 182.8287 280.0374 12.61960892764892
GLOBALSTAR M069 [+]     
1 31573U 07020C   23356.42125150 -.00000063  00000+0  22791-3 0  9990
2 31573  51.9977  34.2582 0000178 194.5136 268.1953 12.62262647766009
GLOBALSTAR M072 [+]     
1 31574U 07020D   23356.57059021 -.00000114  00000+0 -54906-4 0  9992
2 31574  52.0081 129.5793 0001424 121.6719 318.3567 12.62269270764290
GLOBALSTAR M071 [P]     
1 31576U 07020F   23356.44807187 -.00000053  00000+0  28235-3 0  9990
2 31576  52.0097  39.2042 0000277  36.1805  67.9927 12.62263534427193
